#cP2016  3 22 18  0  0.00000000     192 ORBIT IGb08 HLM  IGS
## 1889 237600.00000000   900.00000000 57469 0.7500000000000
+   31   G01G02G03G05G06G07G08G09G10G11G12G13G14G15G16G17G18
+        G19G20G21G22G23G24G25G26G27G28G29G30G31G32  0  0  0
+          0  0  0  0  0  0  0  0  0  0  0  0  0  0  0  0  0
+          0  0  0  0  0  0  0  0  0  0  0  0  0  0  0  0  0
+          0  0  0  0  0  0  0  0  0  0  0  0  0  0  0  0  0
++         3  4  3  3  4  4  3  3  4  3  4  3  4  3  5  3  4
++         4  4  4  3  4  3  4  3  3  3  3  3  3  5  0  0  0
++         0  0  0  0  0  0  0  0  0  0  0  0  0  0  0  0  0
++         0  0  0  0  0  0  0  0  0  0  0  0  0  0  0  0  0
++         0  0  0  0  0  0  0  0  0  0  0  0  0  0  0  0  0
%c G  cc GPS ccc cccc cccc cccc cccc ccccc ccccc ccccc ccccc
%c cc cc ccc ccc cccc cccc cccc cccc ccccc ccccc ccccc ccccc
%f  1.2500000  1.025000000  0.00000000000  0.000000000000000
%f  0.0000000  0.000000000  0.00000000000  0.000000000000000
%i    0    0    0    0      0      0      0      0         0
%i    0    0    0    0      0      0      0      0         0
/* ULTRA ORBIT COMBINATION 18893_18 (57470.750) FROM:       
/* cou emu esu gfu ngu siu usu                              
/* REFERENCED TO emu CLOCK AND TO WEIGHTED MEAN POLE:       
/* PCV:IGS08_1888 OL/AL:FES2004  NONE     Y  ORB:CMB CLK:CMB
*  2016  3 24  2 15  0.00000000
PG01  13990.469687  -7286.453980  21261.658602     15.232763  5 10  7 216  P   P
PG02 -13992.094931 -16469.869147 -15273.559171    598.816441  8 11 11 214  P   P
PG03  22785.376083 -12512.965517   5484.749179    -39.574213  5 10 12 187  P   P
PG05 -17665.515458  -4073.826095 -19543.152196   -135.015255 10 12  7 224  P   P
PG06  -6282.634430 -25454.391168  -4243.159578    164.994819 13  8 12 235  P   P
PG07   6661.139986 -21967.345142 -12877.470562    463.761459 13 13 12 244  P   P
PG08  25097.117871   4726.345066   7405.248188    -28.643151  5  9  6 266  P   P
PG09  10527.448696 -11943.273102 -21279.874720     95.861759 10  8  4 223  P   P
PG10  -3132.750901  18756.755318  18532.081414 999999.999999 11 11 11      P   P
PG11  16947.517531  -1982.074975  19812.719421   -637.907483  9 10  4 235  P   P
PG12 -23256.291161   8961.530689   8731.110014    373.611106  9 13 13 251  P   P
PG13 -23310.782577 -12611.516899    508.792627     -5.740457  7  7 11 233  P   P
PG14   7227.818861  18044.694063  18420.463822     -4.289623 11 11 13 210  P   P
PG15 -24583.437831   -486.239081  10348.702411   -303.156415  9  5 10 201  P   P
PG16  16624.283415   4997.555846 -20315.511926    -29.890009 15 15 11 232  P   P
PG17  -5824.438911 -17419.525325  19584.020105   -202.398873 11  7  9 231  P   P
PG18 -13184.344837  20702.700344  10334.202402    496.946227 12  9 11 235  P   P
PG19 -15439.294708 -17533.132145  12030.173652   -525.427301 14 10  8 175  P   P
PG20 -22488.935227  10725.198017  -9429.079270    401.314031  4 12  9 247  P   P
PG21  -3071.534093  24318.317541  -9132.737961   -516.155701 12 11 10 209  P   P
PG22  20199.219805    736.709317  17565.613064    375.984281  8 12 11 181  P   P
PG23  20602.859875  -4148.536567 -16316.235379   -166.093230 11 12 11 215  P   P
PG24 -14991.222816   3838.457650  21521.879660    -14.404163  7 13  5 236  P   P
PG25 -20024.177780  17149.419877  -2298.964520   -139.769398 10 10  9 237  P   P
PG26   7870.031014  13099.601566 -21723.129935   -304.150875 10 10  7 226  P   P
PG27  23651.408166  11930.785173  -2918.101886     75.009611  9 10 13 125  P   P
PG28   5247.429345 -18343.248330  19086.694542    511.214825 13  9 11 227  P   P
PG29 -13837.553625   8928.728117 -20811.443629    656.245523  9  6  9 260  P   P
PG30    789.765770 -26301.966599  -3252.357743    109.797785 10  5 10 205  P   P
PG31   6909.980060  24520.649023  -6703.089652    277.038250  8  6 11 223  P   P
PG32   9301.710353  17336.194103  17844.479973      9.406205 13 12 13 297  P   P
*  2016  3 24  2 30  0.00000000
PG01  14414.528826  -4847.807951  21688.615073     15.233723  4 10  6 216  P   P
PG02 -14111.651280 -18164.616902 -13193.578963    598.816028  8 11 11 212  P   P
PG03  22333.192621 -11829.625892   8192.726934    -39.578114  7 11 12 188  P   P
PG05 -15975.337728  -5609.289723 -20575.740853   -135.012328 11 12  6 223  P   P
PG06  -6092.698741 -25814.300288  -1406.074142    165.000022 13  7 12 233  P   P
PG07   7090.558294 -20377.419999 -15088.118648    463.759735 13 13 12 245  P   P
PG08  25654.031327   5188.346817   4659.823275    -28.644544  4  9  6 267  P   P
PG09  12743.391059 -11043.960509 -20541.648430     95.868503 10  8  5 220  P   P
PG10  -4794.779357  19924.792450  16877.574214 999999.999999 11 11 12      P   P
PG11  18009.055396    122.959808  18984.915376   -637.908951  8 10  5 234  P   P
PG12 -22414.138805   8135.365874  11339.001807    373.612457 10 13 12 250  P   P
PG13 -23123.280517 -12774.386956  -2371.412382     -5.742948  7  7 11 234  P   P
PG14   5250.527737  17233.595627  19819.297389     -4.291597 11 12 13 211  P   P
PG15 -25500.480416  -1073.705695   7838.985407   -303.158019  8  6 10 202  P   P
PG16  14728.894100   6382.258984 -21334.517922    -29.887411 15 15 10 231  P   P
PG17  -3744.439014 -16599.087253  20772.006534   -202.399243 12  7  9 233  P   P
PG18 -14145.465060  21098.566998   7802.103138    496.949943 11  9 11 234  P   P
PG19 -13953.202835 -17032.158362  14337.798040   -525.427417 14 10  8 183  P   P
PG20 -21829.098753   9677.961507 -11838.963064    401.316292  5 12  9 247  P   P
PG21  -3626.044290  23102.037505 -11587.952376   -516.157145 12 11 10 213  P   P
PG22  18758.434179   2209.762226  18986.655304    375.978109  8 12 10 185  P   P
PG23  22193.263063  -3345.824999 -14355.778558   -166.094840 11 12 12 217  P   P
PG24 -15445.810879   1402.527342  21514.393025    -14.404770  8 13  7 236  P   P
PG25 -20227.507484  17033.693490    602.125401   -139.775781 10 11  9 239  P   P
PG26   5947.235270  14641.028585 -21343.035393   -304.163821 11 10  8 228  P   P
PG27  23119.173391  11956.633377  -5727.246412     75.012982 10 10 13 132  P   P
PG28   6912.276160 -19397.030840  17377.193905    511.217216 13  9 12 229  P   P
PG29 -15922.322028   7911.263864 -19699.787296    656.245958 10  7  9 259  P   P
PG30   1115.863943 -25797.446737  -6030.286749    109.801179 10  6 10 208  P   P
PG31   6744.355825  25170.665396  -3891.007768    277.036672  9  6 11 223  P   P
PG32   7263.057968  16716.889544  19320.486237      9.405450 13 13 13 297  P   P
*  2016  3 24  2 45  0.00000000
PG01  14970.762904  -2410.241915  21739.384487     15.234681  3 10  5 217  P   P
PG02 -14253.664930 -19605.845492 -10885.395840    598.815618  8 11 12 210  P   P
PG03  21697.126769 -10921.975226  10759.814292    -39.582006  5 12 11 178  P   P
PG05 -14293.025858  -7294.821792 -21257.697127   -135.009404 11 13  7 223  P   P
PG06  -5851.218751 -25868.793899   1455.211640    165.005224 13  7 12 231  P   P
PG07   7647.723309 -18579.538517 -17032.209396    463.758009 13 14 12 246  P   P
PG08  25933.182304   5528.553404   1834.423448    -28.645943  2  8  7 267  P   P
PG09  14903.691211 -10289.870694 -19450.617181     95.875242 10  8  6 218  P   P
PG10  -6244.697317  21039.336987  14932.257550 999999.999999 11 11 12      P   P
PG11  19091.015077   2085.455063  17815.552962   -637.910424  7 10  6 234  P   P
PG12 -21398.989092   7079.449436  13748.259122    373.613807 10 14 12 250  P   P
PG13 -22648.472518 -12814.695084  -5210.646131     -5.745441  8  8 11 234  P   P
PG14   3104.640316  16478.073964  20885.537037     -4.293574 12 12 12 213  P   P
PG15 -26164.146842  -1543.699047   5196.431818   -303.159626  8  7 10 203  P   P
PG16  12840.118892   7934.856087 -21992.096347    -29.884809 15 15  9 230  P   P
PG17  -1515.384327 -15856.494529  21614.058472   -202.399615 11  8  9 234  P   P
PG18 -14882.515098  21333.764958   5135.960882    496.953653 11  9 11 233  P   P
PG19 -12211.795507 -16513.456237  16390.567294   -525.427533 14 10  7 189  P   P
PG20 -21042.914779   8412.266709 -14047.197097    401.318552  6 12  9 247  P   P
PG21  -4305.851891  21646.765599 -13832.947572   -516.158591 13 12 10 216  P   P
PG22  17287.486622   3846.552571  20088.993121    375.971939  8 12  9 188  P   P
PG23  23595.684983  -2697.065817 -12150.517997   -166.096448 10 12 12 219  P   P
PG24 -16016.571166   -984.260628  21135.112406    -14.405377  8 13  8 237  P   P
PG25 -20194.148609  16705.247548   3492.711955   -139.782167 10 11 10 241  P   P
PG26   4153.752655  16237.352661 -20595.549345   -304.176769 11  9  9 229  P   P
PG27  22291.282490  11919.352647  -8438.813646     75.016353 10  9 13 132  P   P
PG28   8356.347847 -20418.436296  15381.252341    511.219610 12  9 12 232  P   P
PG29 -17923.379273   7059.709614 -18248.243892    656.246392 10  8 10 258  P   P
PG30   1512.706081 -25004.665518  -8703.914505    109.804572 10  8 10 211  P   P
PG31   6553.581818  25508.064910  -1010.317802    277.035096  9  6 11 223  P   P
PG32   5053.274636  16160.740396  20464.063720      9.404693 13 13 13 297  P   P
EOF
